MALLIGYONG-1            
1 58400U 23179A   24094.56590394  .00005539  00000+0  24729-3 0  9997
2 58400  97.4141 342.5315 0010332 154.6640 205.5105 15.21722058 20376
